[{"OBJECT_NAME":"GOES 18","OBJECT_ID":"2022-021A","EPOCH":"2026-03-29T00:04:38.606304","MEAN_MOTION":1.00272466,"ECCENTRICITY":4.56e-5,"INCLINATION":0.0499,"RA_OF_ASC_NODE":29.1378,"ARG_OF_PERICENTER":26.3797,"MEAN_ANOMALY":355.0404,"EPHEMERIS_TYPE":0,"CLASSIFICATION_TYPE":"U","NORAD_CAT_ID":51850,"ELEMENT_SET_NO":999,"REV_AT_EPOCH":578,"BSTAR":0,"MEAN_MOTION_DOT":7.7e-7,"MEAN_MOTION_DDOT":0},{"OBJECT_NAME":"GOES 19","OBJECT_ID":"2024-119A","EPOCH":"2026-03-29T04:07:08.571936","MEAN_MOTION":1.00269859,"ECCENTRICITY":8.48e-5,"INCLINATION":0.0341,"RA_OF_ASC_NODE":15.2164,"ARG_OF_PERICENTER":26.6354,"MEAN_ANOMALY":131.2883,"EPHEMERIS_TYPE":0,"CLASSIFICATION_TYPE":"U","NORAD_CAT_ID":60133,"ELEMENT_SET_NO":999,"REV_AT_EPOCH":616,"BSTAR":0,"MEAN_MOTION_DOT":-2.67e-6,"MEAN_MOTION_DDOT":0}]
