GOES 18                 
1 51850U 22021A   26088.00322461  .00000077  00000+0  00000+0 0  9990
2 51850   0.0499  29.1378 0000456  26.3797 355.0404  1.00272466  5781
GOES 19                 
1 60133U 24119A   26088.17162699 -.00000267  00000+0  00000+0 0  9999
2 60133   0.0341  15.2164 0000848  26.6354 131.2883  1.00269859  6167
